{
  "type": "FeatureCollection",
  "features": [
    {
      "type": "Feature",
      "properties": {
        "norad_id": 58701,
        "name": "TIANMU-1 16",
        "group": "weather",
        "lat": -10.713870164480396,
        "lon": 165.19330853362976,
        "alt_km": 494.49434769752406,
        "timestamp": "2025-12-08T21:31:04.318843+00:00",
        "meta_object_name": "TIANMU-1 16",
        "meta_object_id": "2024-004B",
        "meta_epoch": "2025-12-08T15:15:47.991168",
        "meta_mean_motion": 15.2434915,
        "meta_eccentricity": 0.00046894,
        "meta_inclination": 97.4569,
        "meta_ra_of_asc_node": 163.514,
        "meta_arg_of_pericenter": 314.1644,
        "meta_mean_anomaly": 45.9207,
        "meta_ephemeris_type": 0,
        "meta_classification_type": "U",
        "meta_norad_cat_id": 58701,
        "meta_element_set_no": 999,
        "meta_rev_at_epoch": 10672,
        "meta_bstar": 0.0004137661,
        "meta_mean_motion_dot": 0.00010062,
        "meta_mean_motion_ddot": 0,
        "tle_line1": "1 58701U 24004B   25342.63597212  .00010062  00000+0  41377-3 0  9995",
        "tle_line2": "2 58701  97.4569 163.5140 0004689 314.1644  45.9207 15.24349150106720"
      },
      "geometry": {
        "type": "Point",
        "coordinates": [
          165.19330853362976,
          -10.713870164480396
        ]
      }
    },
    {
      "type": "Feature",
      "properties": {
        "norad_id": 58702,
        "name": "TIANMU-1 17",
        "group": "weather",
        "lat": 71.63596595764932,
        "lon": 140.93143140668016,
        "alt_km": 486.87456178191314,
        "timestamp": "2025-12-08T21:31:04.318854+00:00",
        "meta_object_name": "TIANMU-1 17",
        "meta_object_id": "2024-004C",
        "meta_epoch": "2025-12-08T14:53:47.336064",
        "meta_mean_motion": 15.2439307,
        "meta_eccentricity": 0.00039164,
        "meta_inclination": 97.4602,
        "meta_ra_of_asc_node": 163.9066,
        "meta_arg_of_pericenter": 318.4004,
        "meta_mean_anomaly": 41.6935,
        "meta_ephemeris_type": 0,
        "meta_classification_type": "U",
        "meta_norad_cat_id": 58702,
        "meta_element_set_no": 999,
        "meta_rev_at_epoch": 10671,
        "meta_bstar": 0.00039612549,
        "meta_mean_motion_dot": 9.641e-05,
        "meta_mean_motion_ddot": 0,
        "tle_line1": "1 58702U 24004C   25342.62068676  .00009641  00000+0  39613-3 0  9993",
        "tle_line2": "2 58702  97.4602 163.9066 0003916 318.4004  41.6935 15.24393070106719"
      },
      "geometry": {
        "type": "Point",
        "coordinates": [
          140.93143140668016,
          71.63596595764932
        ]
      }
    },
    {
      "type": "Feature",
      "properties": {
        "norad_id": 58703,
        "name": "TIANMU-1 18",
        "group": "weather",
        "lat": 14.927063736070261,
        "lon": -13.621871534581707,
        "alt_km": 495.60160217371777,
        "timestamp": "2025-12-08T21:31:04.318864+00:00",
        "meta_object_name": "TIANMU-1 18",
        "meta_object_id": "2024-004D",
        "meta_epoch": "2025-12-08T14:29:42.950976",
        "meta_mean_motion": 15.24381854,
        "meta_eccentricity": 0.00032828,
        "meta_inclination": 97.462,
        "meta_ra_of_asc_node": 164.0844,
        "meta_arg_of_pericenter": 319.4943,
        "meta_mean_anomaly": 40.6049,
        "meta_ephemeris_type": 0,
        "meta_classification_type": "U",
        "meta_norad_cat_id": 58703,
        "meta_element_set_no": 999,
        "meta_rev_at_epoch": 10671,
        "meta_bstar": 0.00040097211,
        "meta_mean_motion_dot": 9.756e-05,
        "meta_mean_motion_ddot": 0,
        "tle_line1": "1 58703U 24004D   25342.60396934  .00009756  00000+0  40097-3 0  9998",
        "tle_line2": "2 58703  97.4620 164.0844 0003282 319.4943  40.6049 15.24381854106717"
      },
      "geometry": {
        "type": "Point",
        "coordinates": [
          -13.621871534581707,
          14.927063736070261
        ]
      }
    },
    {
      "type": "Feature",
      "properties": {
        "norad_id": 58990,
        "name": "INSAT-3DS",
        "group": "weather",
        "lat": 0.013484500146163106,
        "lon": 122.72958491760438,
        "alt_km": 35792.21563781857,
        "timestamp": "2025-12-08T21:31:04.318877+00:00",
        "meta_object_name": "INSAT-3DS",
        "meta_object_id": "2024-033A",
        "meta_epoch": "2025-12-08T13:59:42.496800",
        "meta_mean_motion": 1.00269578,
        "meta_eccentricity": 0.00016749,
        "meta_inclination": 0.0122,
        "meta_ra_of_asc_node": 68.3918,
        "meta_arg_of_pericenter": 195.2688,
        "meta_mean_anomaly": 105.9379,
        "meta_ephemeris_type": 0,
        "meta_classification_type": "U",
        "meta_norad_cat_id": 58990,
        "meta_element_set_no": 999,
        "meta_rev_at_epoch": 4515,
        "meta_bstar": 0,
        "meta_mean_motion_dot": -1.53e-06,
        "meta_mean_motion_ddot": 0,
        "tle_line1": "1 58990U 24033A   25342.58313075 -.00000153  00000+0  00000+0 0  9999",
        "tle_line2": "2 58990   0.0122  68.3918 0001674 195.2688 105.9379  1.00269578 45157"
      },
      "geometry": {
        "type": "Point",
        "coordinates": [
          122.72958491760438,
          0.013484500146163106
        ]
      }
    },
    {
      "type": "Feature",
      "properties": {
        "norad_id": 59051,
        "name": "METEOR-M2 4",
        "group": "weather",
        "lat": -50.592800534695506,
        "lon": -49.42364374449981,
        "alt_km": 821.5682675411081,
        "timestamp": "2025-12-08T21:31:04.318888+00:00",
        "meta_object_name": "METEOR-M2 4",
        "meta_object_id": "2024-039A",
        "meta_epoch": "2025-12-08T15:00:21.185280",
        "meta_mean_motion": 14.22400321,
        "meta_eccentricity": 0.00072732,
        "meta_inclination": 98.6763,
        "meta_ra_of_asc_node": 299.5988,
        "meta_arg_of_pericenter": 10.2708,
        "meta_mean_anomaly": 349.8618,
        "meta_ephemeris_type": 0,
        "meta_classification_type": "U",
        "meta_norad_cat_id": 59051,
        "meta_element_set_no": 999,
        "meta_rev_at_epoch": 9217,
        "meta_bstar": 6.4687e-05,
        "meta_mean_motion_dot": 1e-06,
        "meta_mean_motion_ddot": 0,
        "tle_line1": "1 59051U 24039A   25342.62524520  .00000100  00000+0  64687-4 0  9995",
        "tle_line2": "2 59051  98.6763 299.5988 0007273  10.2708 349.8618 14.22400321 92175"
      },
      "geometry": {
        "type": "Point",
        "coordinates": [
          -49.42364374449981,
          -50.592800534695506
        ]
      }
    },
    {
      "type": "Feature",
      "properties": {
        "norad_id": 60133,
        "name": "GOES 19",
        "group": "weather",
        "lat": 0.0019501383764996515,
        "lon": -34.522332253858174,
        "alt_km": 35782.517533275146,
        "timestamp": "2025-12-08T21:31:04.318900+00:00",
        "meta_object_name": "GOES 19",
        "meta_object_id": "2024-119A",
        "meta_epoch": "2025-12-08T12:36:26.154144",
        "meta_mean_motion": 1.00268399,
        "meta_eccentricity": 0.00011897,
        "meta_inclination": 0.0295,
        "meta_ra_of_asc_node": 196.589,
        "meta_arg_of_pericenter": 104.2361,
        "meta_mean_anomaly": 250.6306,
        "meta_ephemeris_type": 0,
        "meta_classification_type": "U",
        "meta_norad_cat_id": 60133,
        "meta_element_set_no": 999,
        "meta_rev_at_epoch": 505,
        "meta_bstar": 0,
        "meta_mean_motion_dot": -2.46e-06,
        "meta_mean_motion_ddot": 0,
        "tle_line1": "1 60133U 24119A   25342.52530271 -.00000246  00000+0  00000+0 0  9992",
        "tle_line2": "2 60133   0.0295 196.5890 0001189 104.2361 250.6306  1.00268399  5055"
      },
      "geometry": {
        "type": "Point",
        "coordinates": [
          -34.522332253858174,
          0.0019501383764996515
        ]
      }
    },
    {
      "type": "Feature",
      "properties": {
        "norad_id": 65815,
        "name": "FENGYUN 3H",
        "group": "weather",
        "lat": -41.65987954040419,
        "lon": 94.7793518348349,
        "alt_km": 832.5580481470588,
        "timestamp": "2025-12-08T21:31:04.318913+00:00",
        "meta_object_name": "FENGYUN 3H",
        "meta_object_id": "2025-219A",
        "meta_epoch": "2025-12-08T13:42:35.913600",
        "meta_mean_motion": 14.19903021,
        "meta_eccentricity": 6.088e-05,
        "meta_inclination": 98.6579,
        "meta_ra_of_asc_node": 282.2523,
        "meta_arg_of_pericenter": 83.047,
        "meta_mean_anomaly": 277.0776,
        "meta_ephemeris_type": 0,
        "meta_classification_type": "U",
        "meta_norad_cat_id": 65815,
        "meta_element_set_no": 999,
        "meta_rev_at_epoch": 1033,
        "meta_bstar": 0.00012661054,
        "meta_mean_motion_dot": 2.26e-06,
        "meta_mean_motion_ddot": 0,
        "tle_line1": "1 65815U 25219A   25342.57124900  .00000226  00000+0  12661-3 0  9996",
        "tle_line2": "2 65815  98.6579 282.2523 0000608  83.0470 277.0776 14.19903021 10334"
      },
      "geometry": {
        "type": "Point",
        "coordinates": [
          94.7793518348349,
          -41.65987954040419
        ]
      }
    }
  ]
}